NORAD_CAT_ID,OBJECT_NAME,OBJECT_TYPE,EPOCH,MEAN_MOTION,ECCENTRICITY,INCLINATION,RA_OF_ASC_NODE,ARG_OF_PERICENTER,MEAN_ANOMALY,BSTAR,MEAN_MOTION_DOT,MEAN_MOTION_DDOT,TLE_LINE0,TLE_LINE1,TLE_LINE2,SEMIMAJOR_AXIS,PERIOD,APOGEE,PERIGEE,DECAYED
52129.0,STARLINK-3661,PAYLOAD,2022-03-31 22:00:00,15.7323881,0.0001298,53.2166,81.0909,70.6159,320.1054,9.7325e-05,0.00013083,0.0,0 STARLINK-3661,1 52129U 22029AT  22090.91667824  .00013083  00000-0  97325-4 0  9995,2 52129  53.2166  81.0909 0001298  70.6159 320.1054 15.73238810  2790,6727.785,91.531,350.523,348.776,0.0
52129.0,STARLINK-3661,PAYLOAD,2022-04-01 14:00:01,15.73263029,0.0001312,53.2164,77.7931,63.7757,144.9126,-0.00072148,-0.0010094,0.0,0 STARLINK-3661,1 52129U 22029AT  22091.58334491 -.00100940  00000-0 -72148-3 0  9996,2 52129  53.2164  77.7931 0001312  63.7757 144.9126 15.73263029  3365,6727.715,91.53,350.463,348.6980000000001,0.0
52129.0,STARLINK-3661,PAYLOAD,2022-04-01 20:00:01,15.73203802,0.0001223,53.2164,76.5545,73.9029,111.5287,-8.9506e-05,-0.00013164,0.0,0 STARLINK-3661,1 52129U 22029AT  22091.83334491 -.00013164  00000-0 -89506-4 0  9992,2 52129  53.2164  76.5545 0001223  73.9029 111.5287 15.73203802  3405,6727.884,91.533,350.57199999999995,348.927,0.0
52129.0,STARLINK-3661,PAYLOAD,2022-04-01 22:00:00,15.73199035,0.0001248,53.2167,76.1421,76.8045,220.8613,-6.487100000000001e-05,-9.713e-05,0.0,0 STARLINK-3661,1 52129U 22029AT  22091.91667824 -.00009713  00000-0 -64871-4 0  9993,2 52129  53.2167  76.1421 0001248  76.8045 220.8613 15.73199035  2952,6727.898,91.533,350.603,348.923,0.0
52129.0,STARLINK-3661,PAYLOAD,2022-04-02 22:00:01,15.73201248,0.0001032,53.2173,71.1936,77.8554,126.6273,-0.00043418,-0.00061114,0.0,0 STARLINK-3661,1 52129U 22029AT  22092.91668981 -.00061114  00000-0 -43418-3 0  9995,2 52129  53.2173  71.1936 0001032  77.8554 126.6273 15.73201248  3105,6727.892,91.533,350.451,349.06199999999984,0.0
52129.0,STARLINK-3661,PAYLOAD,2022-04-03 04:00:00,15.73151547,0.0001106,53.2175,69.9582,66.9636,114.1361,-0.00045356,-0.00063661,0.0,0 STARLINK-3661,1 52129U 22029AT  22093.16667824 -.00063661  00000-0 -45356-3 0  9990,2 52129  53.2175  69.9582 0001106  66.9636 114.1361 15.73151547  3613,6728.033,91.536,350.642,349.154,0.0
52129.0,STARLINK-3661,PAYLOAD,2022-04-03 12:00:00,15.73120017,9.87e-05,53.2171,68.3091,61.2622,208.6717,0.00046391,0.00064766,0.0,0 STARLINK-3661,1 52129U 22029AT  22093.50001157  .00064766  00000-0  46391-3 0  9994,2 52129  53.2171  68.3091 0000987  61.2622 208.6717 15.73120017  3663,6728.123000000001,91.538,350.652,349.324,0.0
52129.0,STARLINK-3661,PAYLOAD,2022-04-03 22:00:00,15.73186091,8.85e-05,53.2176,66.24600000000001,81.1586,29.839,0.00036715,0.0005119,0.0,0 STARLINK-3661,1 52129U 22029AT  22093.91667824  .00051190  00000-0  36715-3 0  9994,2 52129  53.2176  66.2460 0000885  81.1586  29.8390 15.73186091  3262,6727.935,91.534,350.395,349.204,0.0
52129.0,STARLINK-3661,PAYLOAD,2022-04-04 04:00:00,15.73213888,7.92e-05,53.2174,65.0108,66.0224,21.6623,-0.00032554,-0.00046082,0.0,0 STARLINK-3661,1 52129U 22029AT  22094.16667824 -.00046082  00000-0 -32554-3 0  9995,2 52129  53.2174  65.0108 0000792  66.0224  21.6623 15.73213888  3774,6727.856,91.532,350.25300000000016,349.18800000000016,0.0
52129.0,STARLINK-3661,PAYLOAD,2022-04-04 12:00:00,15.73224761,7.31e-05,53.2173,63.3613,62.1062,114.4992,0.00013697,0.00018666,0.0,0 STARLINK-3661,1 52129U 22029AT  22094.50001157  .00018666  00000-0  13697-3 0  9996,2 52129  53.2173  63.3613 0000731  62.1062 114.4992 15.73224761  3823,6727.825,91.532,350.181,349.1980000000001,0.0
52129.0,STARLINK-3661,PAYLOAD,2022-04-04 14:00:01,15.73255704,7.020000000000001e-05,53.2175,62.9482,68.1798,220.6572,-0.00026767,-0.00038103,0.0,0 STARLINK-3661,1 52129U 22029AT  22094.58334491 -.00038103  00000-0 -26767-3 0  9996,2 52129  53.2175  62.9482 0000702  68.1798 220.6572 15.73255704  3379,6727.736,91.53,350.074,349.129,0.0
52129.0,STARLINK-3661,PAYLOAD,2022-04-04 22:00:00,15.73218663,9.32e-05,53.218,61.2977,83.2426,294.5838,0.00056014,0.00078795,0.0,0 STARLINK-3661,1 52129U 22029AT  22094.91667824  .00078795  00000-0  56014-3 0  9999,2 52129  53.2180  61.2977 0000932  83.2426 294.5838 15.73218663  3421,6727.842,91.532,350.334,349.08,0.0
52129.0,STARLINK-3661,PAYLOAD,2022-04-05 14:00:01,15.7324608,0.0001027,53.2179,57.9995,77.5367,118.3207,-0.00072485,-0.00101327,0.0,0 STARLINK-3661,1 52129U 22029AT  22095.58335648 -.00101327  00000-0 -72485-3 0  9999,2 52129  53.2179  57.9995 0001027  77.5367 118.3207 15.73246080  3996,6727.764,91.53,350.32,348.93800000000016,0.0
52129.0,STARLINK-3661,PAYLOAD,2022-04-05 22:00:00,15.73166727,0.0001046,53.218,56.3496,89.569,195.1541,5.0682e-05,6.489e-05,0.0,0 STARLINK-3661,1 52129U 22029AT  22095.91667824  .00006489  00000-0  50682-4 0  9997,2 52129  53.2180  56.3496 0001046  89.5690 195.1541 15.73166727  3588,6727.99,91.535,350.559,349.151,0.0
52129.0,STARLINK-3661,PAYLOAD,2022-04-06 04:00:00,15.73171633,0.0001107999999999,53.2177,55.1145,78.4057,182.9797,-0.0003246,-0.00045871,0.0,0 STARLINK-3661,1 52129U 22029AT  22096.16667824 -.00045871  00000-0 -32460-3 0  9998,2 52129  53.2177  55.1145 0001108  78.4057 182.9797 15.73171633  4080,6727.976,91.535,350.587,349.096,0.0
52129.0,STARLINK-3661,PAYLOAD,2022-04-06 12:00:00,15.73159199,0.0001122,53.2176,53.4647,81.0542,269.2034,0.00033474,0.00046537,0.0,0 STARLINK-3661,1 52129U 22029AT  22096.50001157  .00046537  00000-0  33474-3 0  9991,2 52129  53.2176  53.4647 0001122  81.0542 269.2034 15.73159199  4134,6728.012,91.536,350.631,349.122,0.0
52129.0,STARLINK-3661,PAYLOAD,2022-04-06 14:00:01,15.73168281,0.0001097,53.2178,53.0517,86.5369,15.9404,0.00036362,0.0005065,0.0,0 STARLINK-3661,1 52129U 22029AT  22096.58334491  .00050650  00000-0  36362-3 0  9999,2 52129  53.2178  53.0517 0001097  86.5369  15.9404 15.73168281  3695,6727.986,91.535,350.589,349.11300000000006,0.0
52129.0,STARLINK-3661,PAYLOAD,2022-04-06 22:00:00,15.7321426,0.000115,53.2182,51.4017,94.8941,96.4828,0.00055192,0.00077604,0.0,0 STARLINK-3661,1 52129U 22029AT  22096.91667824  .00077604  00000-0  55192-3 0  9995,2 52129  53.2182  51.4017 0001150  94.8941  96.4828 15.73214260  3711,6727.855,91.532,350.49300000000005,348.946,0.0
52129.0,STARLINK-3661,PAYLOAD,2022-04-07 14:00:01,15.73228667,9.57e-05,53.218,48.1032,90.1995,279.128,-0.00035756,-0.00050559,0.0,0 STARLINK-3661,1 52129U 22029AT  22097.58334491 -.00050559  00000-0 -35756-3 0  9996,2 52129  53.2180  48.1032 0000957  90.1995 279.1280 15.73228667  3720,6727.813,91.532,350.32199999999995,349.035,0.0
52129.0,STARLINK-3661,PAYLOAD,2022-04-07 20:00:01,15.73184868,9.89e-05,53.218,46.8654,99.3688,246.6761,0.00032656,0.00045428,0.0,0 STARLINK-3661,1 52129U 22029AT  22097.83334491  .00045428  00000-0  32656-3 0  9997,2 52129  53.2180  46.8654 0000989  99.3688 246.6761 15.73184868  4346,6727.938,91.534,350.469,349.13800000000015,0.0
52129.0,STARLINK-3661,PAYLOAD,2022-04-07 22:00:00,15.73186746,9.49e-05,53.218,46.4536,98.2375,0.0382,0.00040438,0.00056481,0.0,0 STARLINK-3661,1 52129U 22029AT  22097.91667824  .00056481  00000-0  40438-3 0  9993,2 52129  53.2180  46.4536 0000949  98.2375   0.0382 15.73186746  3705,6727.933000000001,91.534,350.436,349.159,0.0
52129.0,STARLINK-3661,PAYLOAD,2022-04-08 14:00:03,15.73268286,9.24e-05,53.2177,43.1547,97.8766,178.4623,-0.00033617,-0.00047668,0.0,0 STARLINK-3661,1 52129U 22029AT  22098.58336806 -.00047668  00000-0 -33617-3 0  9990,2 52129  53.2177  43.1547 0000924  97.8766 178.4623 15.73268286  3718,6727.7,91.529,350.18699999999984,348.944,0.0
52129.0,STARLINK-3661,PAYLOAD,2022-04-08 20:00:01,15.73217906,9.87e-05,53.2179,41.9168,102.409,150.5241,-0.00015104,-0.00021778,0.0,0 STARLINK-3661,1 52129U 22029AT  22098.83334491 -.00021778  00000-0 -15104-3 0  9991,2 52129  53.2179  41.9168 0000987 102.4090 150.5241 15.73217906  4505,6727.844,91.532,350.37300000000016,349.045,0.0
52129.0,STARLINK-3661,PAYLOAD,2022-04-08 22:00:00,15.73227359,9.73e-05,53.218,41.505,100.953,264.2132,-0.00036662,-0.00051814,0.0,0 STARLINK-3661,1 52129U 22029AT  22098.91667824 -.00051814  00000-0 -36662-3 0  9995,2 52129  53.2180  41.5050 0000973 100.9530 264.2132 15.73227359  3706,6727.816999999999,91.532,350.337,349.028,0.0
52129.0,STARLINK-3661,PAYLOAD,2022-04-09 04:00:00,15.73184538,0.000101,53.218,40.2696,87.6898,254.1747,-0.00025809,-0.00036658,0.0,0 STARLINK-3661,1 52129U 22029AT  22099.16667824 -.00036658  00000-0 -25809-3 0  9993,2 52129  53.2180  40.2696 0001010  87.6898 254.1747 15.73184538  4554,6727.939,91.534,350.4840000000001,349.125,0.0
52129.0,STARLINK-3661,PAYLOAD,2022-04-09 14:00:01,15.73125954,9.56e-05,53.2179,38.2062,96.1968,86.7842,0.00028743,0.00039782,0.0,0 STARLINK-3661,1 52129U 22029AT  22099.58334491  .00039782  00000-0  28743-3 0  9999,2 52129  53.2179  38.2062 0000956  96.1968  86.7842 15.73125954  3727,6728.106,91.537,350.61400000000015,349.32800000000015,0.0
52129.0,STARLINK-3661,PAYLOAD,2022-04-09 20:00:01,15.73156572,0.0001095,53.2179,36.9689,104.1268,55.4982,0.00062047,0.00087204,0.0,0 STARLINK-3661,1 52129U 22029AT  22099.83334491  .00087204  00000-0  62047-3 0  9994,2 52129  53.2179  36.9689 0001095 104.1268  55.4982 15.73156572  4667,6728.019,91.536,350.621,349.147,0.0
52129.0,STARLINK-3661,PAYLOAD,2022-04-09 22:00:00,15.73186004,0.0001054,53.2178,36.5572,101.5408,170.3013,0.00035885,0.00050012,0.0,0 STARLINK-3661,1 52129U 22029AT  22099.91667824  .00050012  00000-0  35885-3 0  9999,2 52129  53.2178  36.5572 0001054 101.5408 170.3013 15.73186004  3715,6727.935,91.534,350.509,349.091,0.0
52129.0,STARLINK-3661,PAYLOAD,2022-04-10 12:00:00,15.73304671,0.0001069,53.2174,33.6708,98.0448,239.4626,-0.00088135,-0.00123064,0.0,0 STARLINK-3661,1 52129U 22029AT  22100.50001157 -.00123064  00000-0 -88135-3 0  9994,2 52129  53.2174  33.6708 0001069  98.0448 239.4626 15.73304671  4765,6727.597,91.527,350.181,348.74300000000005,0.0
